OBJECT_NAME,OBJECT_ID,EPOCH,MEAN_MOTION,ECCENTRICITY,INCLINATION,RA_OF_ASC_NODE,ARG_OF_PERICENTER,MEAN_ANOMALY,EPHEMERIS_TYPE,CLASSIFICATION_TYPE,NORAD_CAT_ID,ELEMENT_SET_NO,REV_AT_EPOCH,BSTAR,MEAN_MOTION_DOT,MEAN_MOTION_DDOT
GSAT0215 (GALILEO 19),2017-079A,2026-06-07T15:07:36.425280,1.70474655,.0003272,55.0756,221.7698,266.5445,93.5000,0,U,43055,999,5282,0,.42E-6,0
GSAT0216 (GALILEO 20),2017-079B,2026-06-07T08:02:11.840928,1.70474847,.0004156,55.0761,221.7781,276.5849,83.4502,0,U,43056,999,5283,0,.42E-6,0
GSAT0217 (GALILEO 21),2017-079C,2026-06-06T09:10:47.504064,1.70474392,.00034764,55.0744,221.8020,288.9809,71.0662,0,U,43057,999,5280,0,.41E-6,0
GSAT0218 (GALILEO 22),2017-079D,2026-06-06T14:27:41.482944,1.70474520,.0005473,55.0744,221.7937,271.7341,88.2873,0,U,43058,999,5283,0,.42E-6,0
BEIDOU-3 M7 (C27),2018-003A,2026-06-06T01:47:04.381728,1.86228500,.00050036,54.3387,302.7026,91.1037,268.9441,0,U,43107,999,5714,0,-.56E-6,0
BEIDOU-3 M8 (C28),2018-003B,2026-06-06T13:21:00.110592,1.86231403,.00023266,54.3309,302.6675,267.3600,92.6047,0,U,43108,999,5716,0,-.56E-6,0
BEIDOU-3 M4 (C22),2018-018A,2026-06-06T23:58:46.686144,1.86231407,.000764,56.6416,63.4853,15.0065,345.0439,0,U,43207,999,5655,0,-.39E-6,0
BEIDOU-3 M3 (C21),2018-018B,2026-06-07T01:34:30.396576,1.86231221,.0008816,56.6414,63.4872,338.9295,21.0619,0,U,43208,999,5655,0,-.39E-6,0
BEIDOU-3 M9 (C29),2018-029A,2026-06-05T03:15:11.757600,1.86228436,.000084,54.2057,300.3710,140.8471,219.1477,0,U,43245,999,5567,0,-.56E-6,0
BEIDOU-3 M10 (C30),2018-029B,2026-06-07T05:13:38.021088,1.86229596,.0004088,54.2009,300.3239,38.8353,321.1867,0,U,43246,999,5569,0,-.55E-6,0
IRNSS-1I,2018-035A,2026-06-06T23:38:40.690752,1.00270043,.0016509,28.7305,74.3576,194.5221,36.1312,0,U,43286,999,2997,0,.92E-6,0
COSMOS 2527 (756),2018-053A,2026-06-07T05:31:26.421888,2.13102372,.0007424,65.5725,74.2393,241.6031,118.3443,0,U,43508,999,6206,0,-.8E-7,0
BEIDOU-2 IGSO-7 (C16),2018-057A,2026-06-07T14:48:54.173952,1.00254517,.0104815,55.1931,163.1411,237.9534,187.8297,0,U,43539,999,2903,0,.2E-6,0
GSAT0221 (GALILEO 25),2018-060A,2026-06-06T12:09:20.551104,1.70476038,.0002733,57.1747,342.0686,309.4515,50.5379,0,U,43564,999,4898,0,-.65E-6,0
GSAT0222 (GALILEO 26),2018-060B,2026-06-06T03:20:56.385600,1.70475822,.0001851,57.1798,342.0825,255.3617,104.6309,0,U,43565,999,4902,0,-.66E-6,0
GSAT0219 (GALILEO 23),2018-060C,2026-06-07T12:48:24.818112,1.70475974,.0002283,57.1754,342.0461,330.3501,29.6519,0,U,43566,999,4902,0,-.63E-6,0
GSAT0220 (GALILEO 24),2018-060D,2026-06-05T23:52:34.266720,1.70475975,.00022902,57.1767,342.0886,320.0107,39.9854,0,U,43567,999,4898,0,-.66E-6,0
BEIDOU-3 M5 (C23),2018-062A,2026-06-07T10:36:21.398112,1.86228986,.0005593,54.0850,182.6354,288.4062,71.5880,0,U,43581,999,5345,0,.98E-6,0
BEIDOU-3 M6 (C24),2018-062B,2026-06-07T07:19:41.464992,1.86227922,.000479,54.0845,182.6295,9.6686,350.3955,0,U,43582,999,5346,0,.97E-6,0
BEIDOU-3 M12 (C26),2018-067A,2026-06-07T05:50:59.265600,1.86227953,.0007774,54.1797,181.3775,30.3929,329.7050,0,U,43602,999,5293,0,.97E-6,0
BEIDOU-3 M11 (C25),2018-067B,2026-06-06T20:12:12.929184,1.86227396,.0004475,54.1771,181.3547,14.0592,346.0057,0,U,43603,999,5295,0,.93E-6,0
BEIDOU-3 M13 (C32),2018-072A,2026-06-06T06:14:03.962976,1.86231624,.00076633,56.6156,63.0201,326.1226,33.8571,0,U,43622,999,5245,0,-.38E-6,0
BEIDOU-3 M14 (C33),2018-072B,2026-06-06T03:00:17.592768,1.86231671,.00062726,56.6173,63.0188,355.0918,4.9306,0,U,43623,999,5244,0,-.38E-6,0
BEIDOU-3 M16 (C35),2018-078A,2026-06-07T08:30:37.003680,1.86232358,.0007384,54.0995,300.3308,40.7933,319.2547,0,U,43647,999,5197,0,-.56E-6,0
BEIDOU-3 M15 (C34),2018-078B,2026-06-01T13:51:31.248864,1.86232507,.00045363,54.1007,300.5335,56.3394,303.6792,0,U,43648,999,5188,0,-.74E-6,0
BEIDOU-3 G1 (C59),2018-085A,2026-06-07T19:19:11.966304,1.00271780,.0008548,2.8438,97.6401,346.7806,261.5669,0,U,43683,999,2796,0,-.93E-6,0
COSMOS 2529 (757),2018-086A,2026-06-07T07:50:30.395616,2.13102175,.0011727,64.2942,192.9273,256.2462,103.6914,0,U,43687,999,5907,0,.85E-6,0
BEIDOU-3 M17 (C36),2018-093A,2026-06-07T15:25:06.551616,1.86228479,.0010022,54.1686,182.6203,291.3761,66.7230,0,U,43706,999,5135,0,.101E-5,0
BEIDOU-3 M18 (C37),2018-093B,2026-06-07T12:12:16.306848,1.86226860,.0007864,54.1691,182.6169,320.2123,39.7852,0,U,43707,999,5135,0,.99E-6,0
GPS BIII-1  (PRN 04),2018-109A,2026-06-07T19:01:13.689120,2.00561277,.0038223,55.6761,92.5579,198.1706,342.2393,0,U,43873,999,5488,0,.14E-6,0
BEIDOU-3 IGSO-1 (C38),2019-023A,2026-06-06T22:54:10.040832,1.00294902,.0025419,58.6799,37.7569,225.7371,92.8010,0,U,44204,999,710,0,-.215E-5,0
